[{"OBJECT_NAME":"FLOCK 4G-5","OBJECT_ID":"2025-009BG","EPOCH":"2026-03-09T10:57:11.608704","MEAN_MOTION":15.28679529,"ECCENTRICITY":0.00020946,"INCLINATION":97.4058,"RA_OF_ASC_NODE":151.2478,"ARG_OF_PERICENTER":314.5072,"MEAN_ANOMALY":45.5996,"EPHEMERIS_TYPE":0,"CLASSIFICATION_TYPE":"U","NORAD_CAT_ID":62663,"ELEMENT_SET_NO":999,"REV_AT_EPOCH":6369,"BSTAR":0.00040688068,"MEAN_MOTION_DOT":0.00011278,"MEAN_MOTION_DDOT":0},{"OBJECT_NAME":"STARLINK-35158","OBJECT_ID":"2025-257B","EPOCH":"2026-03-09T17:23:05.467776","MEAN_MOTION":15.30195403,"ECCENTRICITY":0.00010004,"INCLINATION":53.1596,"RA_OF_ASC_NODE":217.2318,"ARG_OF_PERICENTER":90.2549,"MEAN_ANOMALY":269.8567,"EPHEMERIS_TYPE":0,"CLASSIFICATION_TYPE":"U","NORAD_CAT_ID":66381,"ELEMENT_SET_NO":999,"REV_AT_EPOCH":1973,"BSTAR":0.00077466163,"MEAN_MOTION_DOT":0.00022651,"MEAN_MOTION_DDOT":0}]
